[{"OBJECT_NAME":"STARLINK-5756","OBJECT_ID":"2023-020AF","EPOCH":"2026-03-08T19:48:13.186368","MEAN_MOTION":15.02541545,"ECCENTRICITY":0.00013445,"INCLINATION":43.0045,"RA_OF_ASC_NODE":356.824,"ARG_OF_PERICENTER":263.2487,"MEAN_ANOMALY":96.8202,"EPHEMERIS_TYPE":0,"CLASSIFICATION_TYPE":"U","NORAD_CAT_ID":55598,"ELEMENT_SET_NO":999,"REV_AT_EPOCH":16893,"BSTAR":-3.2038206e-5,"MEAN_MOTION_DOT":-6.36e-6,"MEAN_MOTION_DDOT":0},{"OBJECT_NAME":"SL-16 DEB","OBJECT_ID":"1992-093JY","EPOCH":"2026-03-07T13:13:58.279008","MEAN_MOTION":15.07529046,"ECCENTRICITY":0.0041412,"INCLINATION":71.2754,"RA_OF_ASC_NODE":129.6393,"ARG_OF_PERICENTER":153.6297,"MEAN_ANOMALY":274.6618,"EPHEMERIS_TYPE":0,"CLASSIFICATION_TYPE":"U","NORAD_CAT_ID":39708,"ELEMENT_SET_NO":999,"REV_AT_EPOCH":64104,"BSTAR":0.0012088,"MEAN_MOTION_DOT":0.00018716,"MEAN_MOTION_DDOT":0}]
